     2.100          NAVIGATION                              RINEX VERSION / TYPE
fic2rin                                 06/05/2012 00:57:24 PGM / RUN BY / DATE
                                                            END OF HEADER
13 12  6  4  2  0  0.0  .203245319426D-03 -.238742359215D-11  .000000000000D+00
     .860000000000D+02  .165343750000D+03  .391444876679D-08 -.299385786423D+01
     .853277742863D-05  .499465223402D-02  .375509262085D-05  .515366746140D+04
     .936000000000D+05  .409781932831D-07  .831998536673D+00 -.335276126862D-07
     .985763380727D+00  .320656250000D+03  .200619367454D+01 -.797283210046D-08
     .371086885830D-09  .100000000000D+01  .169100000000D+04  .000000000000D+00
     .240000000000D+01  .000000000000D+00 -.111758708954D-07  .860000000000D+02
     .864060000000D+05  .400000000000D+01
14 12  6  4  2  0  0.0  .204340554774D-03  .909494701773D-12  .000000000000D+00
     .250000000000D+02  .143875000000D+03  .394730727834D-08 -.280764880776D+01
     .752694904804D-05  .635287840851D-02  .382773578167D-05  .515359811592D+04
     .936000000000D+05  .558793544769D-08  .805244193447D+00 -.186264514923D-08
     .978621512680D+00  .315906250000D+03 -.206897096668D+01 -.787211361942D-08
     .376801409577D-09  .100000000000D+01  .169100000000D+04  .000000000000D+00
     .240000000000D+01  .000000000000D+00 -.884756445885D-08  .250000000000D+02
     .864060000000D+05  .400000000000D+01
15 12  6  4  2  0  0.0 -.915559940040D-04 -.113686837722D-12  .000000000000D+00
     .250000000000D+02  .158218750000D+03  .472448250795D-08  .299377698827D+01
     .826455652714D-05  .440006656572D-02  .526942312717D-05  .515357259178D+04
     .936000000000D+05 -.558793544769D-07  .717182588871D+00 -.558793544769D-08
     .945514646652D+00  .270031250000D+03  .536413277709D-01 -.829641700764D-08
     .326085011321D-09  .100000000000D+01  .169100000000D+04  .000000000000D+00
     .240000000000D+01  .000000000000D+00 -.102445483208D-07  .250000000000D+02
     .864060000000D+05  .400000000000D+01
16 12  6  4  2  0  0.0 -.237069558352D-03 -.125055521494D-11  .000000000000D+00
     .107000000000D+03 -.136968750000D+03  .370944022736D-08 -.154206283096D+01
    -.744685530663D-05  .663444155362D-02  .122673809528D-04  .515369291496D+04
     .936000000000D+05 -.204890966415D-07  .287742902291D+01 -.104308128357D-06
     .981125027796D+00  .150906250000D+03 -.986732246502D-02 -.758317301245D-08
     .229295265354D-09  .100000000000D+01  .169100000000D+04  .000000000000D+00
     .340000000000D+01  .000000000000D+00 -.977888703346D-08  .107000000000D+03
     .864060000000D+05  .400000000000D+01
18 12  6  4  2  0  0.0  .198864378035D-03  .181898940355D-11  .000000000000D+00
     .320000000000D+02  .505000000000D+02  .489484674716D-08 -.102193437549D+01
     .262074172497D-05  .133810751140D-01  .113043934107D-04  .515370415688D+04
     .936000000000D+05  .199303030968D-06 -.298299116830D+00  .344589352608D-06
     .929995533293D+00  .148125000000D+03 -.217379335536D+01 -.817748348215D-08
    -.633597820464D-09  .100000000000D+01  .169100000000D+04  .000000000000D+00
     .240000000000D+01  .000000000000D+00 -.107102096081D-07  .320000000000D+02
     .864060000000D+05  .400000000000D+01
19 12  6  4  2  0  0.0 -.271798577160D-03 -.375166564481D-11  .000000000000D+00
     .180000000000D+02  .253125000000D+02  .486484549748D-08  .295334543917D+01
     .134110450745D-05  .837715330999D-02  .858865678310D-05  .515357406807D+04
     .936000000000D+05 -.126659870148D-06 -.231296293930D+01 -.931322574615D-08
     .960245147688D+00  .214281250000D+03  .170848655092D+00 -.786139888739D-08
     .735030616976D-09  .100000000000D+01  .169100000000D+04  .000000000000D+00
     .240000000000D+01  .000000000000D+00 -.144354999065D-07  .180000000000D+02
     .864060000000D+05  .400000000000D+01
21 12  6  4  2  0  0.0 -.227974262089D-03 -.250111042988D-11  .000000000000D+00
     .240000000000D+02 -.173750000000D+02  .586845873058D-08  .567604768503D-01
    -.754371285439D-06  .191902986262D-01  .508874654770D-05  .515359560013D+04
     .936000000000D+05 -.819563865662D-07 -.134907599603D+01  .210478901863D-06
     .930904842209D+00  .264156250000D+03 -.224627085644D+01 -.898073122636D-08
    -.487520307178D-09  .100000000000D+01  .169100000000D+04  .000000000000D+00
     .240000000000D+01  .000000000000D+00 -.111758708954D-07  .240000000000D+02
     .864060000000D+05  .400000000000D+01
22 12  6  4  2  0  0.0  .144258607179D-03  .113686837722D-12  .000000000000D+00
     .730000000000D+02  .563437500000D+02  .483841582515D-08 -.183488010409D+01
     .278837978840D-05  .614629406482D-02  .119227916002D-04  .515368162346D+04
     .936000000000D+05  .199303030968D-06 -.294938766206D+00 -.391155481339D-07
     .927718156054D+00  .134000000000D+03 -.201383687877D+01 -.791890128260D-08
    -.596810573842D-09  .100000000000D+01  .169100000000D+04  .000000000000D+00
     .240000000000D+01  .000000000000D+00 -.167638063431D-07  .730000000000D+02
     .864060000000D+05  .400000000000D+01
25 12  6  4  2  0  0.0  .348691828549D-04  .568434188608D-12  .000000000000D+00
     .410000000000D+02 -.128531250000D+03  .408945605655D-08 -.485870338747D+00
    -.664405524731D-05  .170270365197D-02  .104140490294D-04  .515371513939D+04
     .936000000000D+05 -.186264514923D-08  .282513885798D+01  .372529029846D-08
     .969118271026D+00  .186250000000D+03  .692537801311D+00 -.779175312922D-08
     .789318592573D-10  .100000000000D+01  .169100000000D+04  .000000000000D+00
     .240000000000D+01  .000000000000D+00  .558793544769D-08  .410000000000D+02
     .864060000000D+05  .400000000000D+01
26 12  6  4  2  0  0.0 -.383932143450D-03  .101181285572D-10  .000000000000D+00
     .340000000000D+02  .150375000000D+03  .381623038989D-08  .240681866938D+01
     .747106969357D-05  .209002990741D-01  .414811074734D-05  .515366638756D+04
     .936000000000D+05  .152736902237D-06  .825912316163D+00 -.238418579102D-06
     .983303470811D+00  .306531250000D+03  .119814920281D+01 -.768496296670D-08
     .372515516767D-09  .100000000000D+01  .169100000000D+04  .000000000000D+00
     .240000000000D+01  .000000000000D+00 -.605359673500D-08  .340000000000D+02
     .864060000000D+05  .400000000000D+01
27 12  6  4  2  0  0.0  .394952949136D-03  .397903932026D-11  .000000000000D+00
     .440000000000D+02 -.572187500000D+02  .419017453759D-08 -.299623714981D+01
    -.290386378765D-05  .216964074643D-01 -.124238431454D-05  .515372695351D+04
     .936000000000D+05  .165775418282D-06  .175020315506D+01  .303611159325D-06
     .981750752968D+00  .408062500000D+03 -.107799383370D+01 -.799033282943D-08
    -.217866217860D-10  .100000000000D+01  .169100000000D+04  .000000000000D+00
     .240000000000D+01  .000000000000D+00 -.419095158577D-08  .440000000000D+02
     .864060000000D+05  .400000000000D+01
28 12  6  4  2  0  0.0  .151055399328D-03  .397903932026D-11  .000000000000D+00
     .390000000000D+02 -.144062500000D+03  .368729644784D-08 -.190573390508D+01
    -.730715692043D-05  .178706488805D-01  .114049762487D-04  .515363987732D+04
     .936000000000D+05  .325962901115D-06  .288415079648D+01  .119209289551D-06
     .979489767726D+00  .161250000000D+03 -.182857046380D+01 -.733244828305D-08
     .220009164265D-09  .100000000000D+01  .169100000000D+04  .000000000000D+00
     .240000000000D+01  .000000000000D+00 -.107102096081D-07  .390000000000D+02
     .864060000000D+05  .400000000000D+01
29 12  6  4  2  0  0.0  .319813378155D-03  .397903932026D-11  .000000000000D+00
     .106000000000D+03  .211875000000D+02  .480841457548D-08  .317861087687D+00
     .114366412163D-05  .224430696107D-02  .871717929840D-05  .515356923294D+04
     .936000000000D+05 -.577419996262D-07 -.235739664605D+01  .745058059692D-08
     .963460735253D+00  .215906250000D+03 -.113237580763D+01 -.804212070089D-08
     .706457998240D-09  .100000000000D+01  .169100000000D+04  .000000000000D+00
     .340000000000D+01  .000000000000D+00 -.931322574615D-08  .106000000000D+03
     .864060000000D+05  .400000000000D+01
31 12  6  4  2  0  0.0  .249261036515D-03  .409272615798D-11  .000000000000D+00
     .520000000000D+02 -.803125000000D+02  .429303596504D-08  .959383297297D+00
    -.415556132793D-05  .774999428540D-02  .538304448128D-06  .515365779495D+04
     .936000000000D+05  .819563865662D-07  .180575020134D+01 -.210478901863D-06
     .980638433447D+00  .376250000000D+03 -.860439089016D+00 -.835856245339D-08
    -.928610108910D-10  .100000000000D+01  .169100000000D+04  .000000000000D+00
     .240000000000D+01  .000000000000D+00 -.130385160446D-07  .520000000000D+02
     .864060000000D+05  .400000000000D+01
32 12  6  4  2  0  0.0 -.450730789453D-03 -.397903932026D-11  .000000000000D+00
     .360000000000D+02  .797812500000D+02  .427267797419D-08  .153707746362D+01
     .414811074734D-05  .118207739433D-01  .123679637909D-04  .515367481041D+04
     .936000000000D+05  .178813934326D-06 -.219595885519D+00  .156462192535D-06
     .951987772420D+00  .132562500000D+03 -.571948314183D+00 -.766210487171D-08
    -.635383609135D-09  .100000000000D+01  .169100000000D+04  .000000000000D+00
     .240000000000D+01  .000000000000D+00 -.279396772385D-08  .360000000000D+02
     .864060000000D+05  .400000000000D+01
29 12  6  4  1 59 44.0  .319808255881D-03  .386535248253D-11  .000000000000D+00
     .280000000000D+02  .211875000000D+02  .480841457548D-08  .315526337727D+00
     .114366412163D-05  .224430591334D-02  .871717929840D-05  .515356922531D+04
     .935840000000D+05 -.577419996262D-07 -.235739647781D+01  .745058059692D-08
     .963460720623D+00  .215906250000D+03 -.113237490209D+01 -.804212070089D-08
     .706100840506D-09  .100000000000D+01  .169100000000D+04  .000000000000D+00
     .240000000000D+01  .000000000000D+00 -.931322574615D-08  .280000000000D+02
     .921960000000D+05  .400000000000D+01
